     2.100          NAVIGATION                              RINEX VERSION / TYPE
fic2rin                                 09/01/2014 00:15:35 PGM / RUN BY / DATE
                                                            END OF HEADER
25 14  8 31 12  0  0.0  .225859694183D-04 -.795807864051D-12  .000000000000D+00
     .450000000000D+02 -.486875000000D+02  .405981196461D-08  .268716470925D+01
    -.254437327385D-05  .366777088493D-02  .100824981928D-04  .515356538010D+04
     .432000000000D+05 -.372529029846D-07  .733204706130D+00 -.447034835815D-07
     .976953835809D+00  .191781250000D+03  .729146681097D+00 -.776318051049D-08
    -.535736601294D-11  .100000000000D+01  .180800000000D+04  .000000000000D+00
     .240000000000D+01  .000000000000D+00  .558793544769D-08  .450000000000D+02
     .360060000000D+05  .400000000000D+01
26 14  8 31 12  0  0.0 -.387439504266D-04 -.131876731757D-10  .000000000000D+00
     .104000000000D+03  .749062500000D+02  .446804325479D-08 -.886989488295D+00
     .431202352047D-05  .212199820671D-01  .574626028538D-05  .515368986130D+04
     .432000000000D+05 -.931322574615D-07 -.125985700674D+01  .378116965294D-06
     .973680596105D+00  .282156250000D+03  .129171884463D+01 -.844535178280D-08
     .258582199558D-09  .100000000000D+01  .180800000000D+04  .000000000000D+00
     .340000000000D+01  .000000000000D+00 -.605359673500D-08  .104000000000D+03
     .360060000000D+05  .400000000000D+01
27 14  8 31 12  0  0.0  .106389634311D-04  .318323145621D-11  .000000000000D+00
     .440000000000D+02  .440625000000D+01  .465340811884D-08  .232361172627D+00
     .212341547012D-06  .145605963189D-02  .699795782566D-05  .515367580986D+04
     .432000000000D+05  .558793544769D-08  .177997436305D+01 -.279396772385D-07
     .964154203773D+00  .242500000000D+03  .338000618602D+00 -.813819613139D-08
     .189293599124D-09  .100000000000D+01  .180800000000D+04  .000000000000D+00
     .240000000000D+01  .000000000000D+00  .186264514923D-08  .440000000000D+02
     .360060000000D+05  .400000000000D+01
28 14  8 31 12  0  0.0  .381030607969D-03  .261479726760D-11  .000000000000D+00
     .340000000000D+02 -.300937500000D+02  .393409244217D-08  .119538318899D+01
    -.174343585968D-05  .192434684141D-01  .101104378700D-04  .515368338966D+04
     .432000000000D+05 -.378116965294D-06  .800977995171D+00 -.251457095146D-06
     .987385388222D+00  .205843750000D+03 -.170991412783D+01 -.795104547867D-08
     .528593446610D-10  .100000000000D+01  .180800000000D+04  .000000000000D+00
     .240000000000D+01  .000000000000D+00 -.107102096081D-07  .340000000000D+02
     .360060000000D+05  .400000000000D+01
29 14  8 31 12  0  0.0  .557294115424D-03  .250111042988D-11  .000000000000D+00
     .490000000000D+02  .550000000000D+01  .445947146917D-08  .303915420257D+01
     .249594449997D-06  .120763201267D-02  .731460750103D-05  .515364560127D+04
     .432000000000D+05  .111758708954D-07  .183527260501D+01  .484287738800D-07
     .970143380149D+00  .242968750000D+03 -.793390459372D+00 -.800569061201D-08
     .268939773850D-09  .100000000000D+01  .180800000000D+04  .000000000000D+00
     .240000000000D+01  .000000000000D+00 -.977888703346D-08  .490000000000D+02
     .360060000000D+05  .400000000000D+01
30 14  8 31 12  0  0.0 -.560004264116D-04 -.500222085975D-11  .000000000000D+00
     .390000000000D+02 -.372187500000D+02  .478234206089D-08 -.247335198467D+01
    -.187009572983D-05  .101509829983D-02  .536069273949D-05  .515366732407D+04
     .432000000000D+05 -.279396772385D-07 -.234029456609D+00 -.409781932831D-07
     .958543750555D+00  .279718750000D+03  .305456076048D+01 -.829534553444D-08
    -.154292141173D-09  .100000000000D+01  .180800000000D+04  .000000000000D+00
     .240000000000D+01  .000000000000D+00  .325962901115D-08  .390000000000D+02
     .360060000000D+05  .400000000000D+01
31 14  8 31 12  0  0.0  .332205556333D-03 -.341060513165D-12  .000000000000D+00
     .120000000000D+02 -.253437500000D+02  .441054085959D-08 -.244707180245D+01
    -.111386179924D-05  .800384208560D-02  .485964119434D-05  .515361297035D+04
     .432000000000D+05 -.111758708954D-06 -.280565953030D+00  .165775418282D-06
     .977833150516D+00  .296531250000D+03 -.633328190398D+00 -.805069248651D-08
    -.135005623526D-09  .100000000000D+01  .180800000000D+04  .000000000000D+00
     .240000000000D+01  .000000000000D+00 -.130385160446D-07  .120000000000D+02
     .360060000000D+05  .400000000000D+01
32 14  8 31 12  0  0.0 -.350685324520D-03  .852651282912D-11  .000000000000D+00
     .780000000000D+02  .173750000000D+02  .455090384913D-08 -.189409719197D+01
     .862404704094D-06  .114217873197D-01  .108797103167D-04  .515366889191D+04
     .432000000000D+05 -.132247805595D-06 -.232212011598D+01 -.987201929092D-07
     .947561795695D+00  .163906250000D+03 -.102484973276D+00 -.798997567170D-08
     .878608026122D-10  .100000000000D+01  .180800000000D+04  .000000000000D+00
     .240000000000D+01  .000000000000D+00 -.325962901115D-08  .780000000000D+02
     .360060000000D+05  .400000000000D+01
26 14  8 31 11 59 44.0 -.387472100556D-04 -.133013600134D-10  .000000000000D+00
     .670000000000D+02  .749062500000D+02  .446768609706D-08 -.889323044514D+00
     .431202352047D-05  .212199835805D-01  .574626028538D-05  .515368985176D+04
     .431840000000D+05 -.931322574615D-07 -.125985687947D+01  .378116965294D-06
     .973680590253D+00  .282156250000D+03  .129171872760D+01 -.844535178280D-08
     .258939357292D-09  .100000000000D+01  .180800000000D+04  .000000000000D+00
     .240000000000D+01  .000000000000D+00 -.605359673500D-08  .670000000000D+02
     .364860000000D+05  .400000000000D+01
 2 14  8 31 11 59 44.0  .515727326274D-03  .216004991671D-11  .000000000000D+00
     .900000000000D+01 -.362187500000D+02  .525343311229D-08 -.114844729106D+01
    -.186637043953D-05  .137182447361D-01  .641681253910D-05  .515366155624D+04
     .431840000000D+05  .376254320145D-06  .280402384891D+01  .100582838058D-06
     .940087002603D+00  .245031250000D+03 -.239289012248D+01 -.841535053313D-08
    -.282154610015D-09  .100000000000D+01  .180800000000D+04  .000000000000D+00
     .240000000000D+01  .000000000000D+00 -.200234353542D-07  .900000000000D+01
     .366360000000D+05  .400000000000D+01
19 14  8 31 11 59 44.0 -.476336106658D-03 -.193267624127D-11  .000000000000D+00
     .000000000000D+00  .728125000000D+01  .464233622908D-08 -.449275570268D+00
     .359490513802D-06  .105813891860D-01  .649690628052D-05  .515364488983D+04
     .431840000000D+05  .106170773506D-06  .187665778212D+01  .100582838058D-06
     .966497274811D+00  .256312500000D+03  .493826156859D+00 -.826034407649D-08
     .166078346401D-09  .100000000000D+01  .180800000000D+04  .000000000000D+00
     .240000000000D+01  .000000000000D+00 -.149011611938D-07  .000000000000D+00
     .379560000000D+05  .400000000000D+01
24 14  8 31 11 59 44.0 -.344254076481D-04 -.568434188608D-12  .000000000000D+00
     .000000000000D+00 -.275937500000D+02  .491341894934D-08 -.154173455799D+01
    -.152923166752D-05  .216799695045D-02  .450201332569D-05  .515371098900D+04
     .431840000000D+05 -.558793544769D-08 -.323386997406D+00 -.298023223877D-07
     .956198297886D+00  .290187500000D+03  .269133296516D+00 -.843713715491D-08
    -.118576367753D-09  .100000000000D+01  .180800000000D+04  .000000000000D+00
     .240000000000D+01  .000000000000D+00  .279396772385D-08  .000000000000D+00
     .394860000000D+05  .400000000000D+01
 2 14  8 31 13 59 44.0  .515743158758D-03  .216004991671D-11  .000000000000D+00
     .110000000000D+02 -.350312500000D+02  .539736767917D-08 -.982157584634D-01
    -.178068876266D-05  .137189154048D-01  .618211925030D-05  .515366316795D+04
     .503840000000D+05  .335276126862D-07  .280396187823D+01  .178813934326D-06
     .940083510617D+00  .251062500000D+03 -.239292794769D+01 -.873464954750D-08
    -.296083761649D-09  .100000000000D+01  .180800000000D+04  .000000000000D+00
     .240000000000D+01  .000000000000D+00 -.200234353542D-07  .110000000000D+02
     .432060000000D+05  .400000000000D+01
19 14  8 31 13 59 44.0 -.476350076497D-03 -.193267624127D-11  .000000000000D+00
     .500000000000D+01  .215625000000D+01  .474091176372D-08  .600911230685D+00
     .340864062309D-06  .105803562328D-01  .669620931149D-05  .515364293289D+04
     .503840000000D+05  .409781932831D-07  .187659828232D+01  .104308128357D-06
     .966498415887D+00  .250312500000D+03  .493840009230D+00 -.826391565383D-08
     .150006248362D-09  .100000000000D+01  .180800000000D+04  .000000000000D+00
     .240000000000D+01  .000000000000D+00 -.149011611938D-07  .500000000000D+01
     .432060000000D+05  .400000000000D+01
24 14  8 31 13 59 44.0 -.344295985997D-04 -.568434188608D-12  .000000000000D+00
     .700000000000D+01 -.323750000000D+02  .484948771491D-08 -.491285567010D+00
    -.161863863468D-05  .216823851224D-02  .459700822830D-05  .515371224022D+04
     .503840000000D+05  .242143869400D-07 -.323447756783D+00 -.521540641785D-07
     .956197443542D+00  .288687500000D+03  .268844516488D+00 -.842749389609D-08
    -.123219418298D-09  .100000000000D+01  .180800000000D+04  .000000000000D+00
     .240000000000D+01  .000000000000D+00  .279396772385D-08  .700000000000D+01
     .432060000000D+05  .400000000000D+01
 1 14  8 31 14  0  0.0  .205077230930D-04  .568434188608D-12  .000000000000D+00
     .900000000000D+02 -.343750000000D+02  .473626871317D-08 -.793353860087D+00
    -.187195837498D-05  .345275038853D-02  .654347240925D-05  .515367017174D+04
     .504000000000D+05  .894069671631D-07  .283565060610D+01 -.931322574615D-08
     .961544441306D+00  .255312500000D+03  .394013747660D+00 -.816784022333D-08
    -.278583032673D-09  .100000000000D+01  .180800000000D+04  .000000000000D+00
     .240000000000D+01  .000000000000D+00  .558793544769D-08  .900000000000D+02
     .432060000000D+05  .400000000000D+01
